{
    "links": {
        "self": "http://www.neowsapp.com/rest/v1/neo/54016724?api_key=iIulBulltgU6a56xZRHN4H3l9WmuAYTsLGpBGhQ2"
    },
    "id": "54016724",
    "neo_reference_id": "54016724",
    "name": "(2020 HC5)",
    "designation": "2020 HC5",
    "nasa_jpl_url": "http://ssd.jpl.nasa.gov/sbdb.cgi?sstr=54016724",
    "absolute_magnitude_h": 26.828,
    "estimated_diameter": {
        "kilometers": {
            "estimated_diameter_min": 0.0114539419,
            "estimated_diameter_max": 0.0256117927
        },
        "meters": {
            "estimated_diameter_min": 11.4539419205,
            "estimated_diameter_max": 25.6117927446
        },
        "miles": {
            "estimated_diameter_min": 0.0071171473,
            "estimated_diameter_max": 0.0159144253
        },
        "feet": {
            "estimated_diameter_min": 37.5785508105,
            "estimated_diameter_max": 84.0281941082
        }
    },
    "is_potentially_hazardous_asteroid": false,
    "close_approach_data": [
        {
            "close_approach_date": "2020-04-27",
            "close_approach_date_full": "2020-Apr-27 08:59",
            "epoch_date_close_approach": 1587977940000,
            "relative_velocity": {
                "kilometers_per_second": "8.9891304206",
                "kilometers_per_hour": "32360.869514308",
                "miles_per_hour": "20107.7858379321"
            },
            "miss_distance": {
                "astronomical": "0.0256139076",
                "lunar": "9.9638100564",
                "kilometers": "3831786.019336812",
                "miles": "2380961.4257675256"
            },
            "orbiting_body": "Earth"
        }
    ],
    "orbital_data": {
        "orbit_id": "2",
        "orbit_determination_date": "2020-04-26 06:41:29",
        "first_observation_date": "2020-04-22",
        "last_observation_date": "2020-04-26",
        "data_arc_in_days": 4,
        "observations_used": 36,
        "orbit_uncertainty": "8",
        "minimum_orbit_intersection": ".00281175",
        "jupiter_tisserand_invariant": "3.542",
        "epoch_osculation": "2458962.5",
        "eccentricity": ".5271434180576366",
        "semi_major_axis": "2.111908297711401",
        "inclination": "5.216190603631888",
        "ascending_node_longitude": "43.24345830152122",
        "orbital_period": "1121.013936195146",
        "perihelion_distance": ".9986297390315283",
        "perihelion_argument": "196.2636121111511",
        "aphelion_distance": "3.225186856391275",
        "perihelion_time": "2458984.512741967405",
        "mean_anomaly": "352.9308754758547",
        "mean_motion": ".3211378452812842",
        "equinox": "J2000",
        "orbit_class": {
            "orbit_class_type": "APO",
            "orbit_class_description": "Near-Earth asteroid orbits which cross the Earth’s orbit similar to that of 1862 Apollo",
            "orbit_class_range": "a (semi-major axis) > 1.0 AU; q (perihelion) < 1.017 AU"
        }
    },
    "is_sentry_object": false
}